start=new Date('2022-05-20T00:00:00.000Z').valueOf();
sats=[{"TIME_SYSTEM":"UTC","EPOCH":"2022-05-19T20:47:23.288064","BSTAR":"0.00008248900000","ARG_OF_PERICENTER":"57.6475","OBJECT_NAME":"STARLINK-1289","CENTER_NAME":"EARTH","OBJECT_TYPE":"PAYLOAD","COUNTRY_CODE":"US","APOAPSIS":"547.828","MEAN_MOTION_DOT":"0.00000948","NORAD_CAT_ID":"45391","MEAN_MOTION_DDOT":"0.0000000000000","LAUNCH_DATE":"2020-03-18","PERIAPSIS":"546.579","MEAN_ANOMALY":"302.4602","RA_OF_ASC_NODE":"265.7835","REF_FRAME":"TEME","CLASSIFICATION_TYPE":"U","TLE_LINE1":"1 45391U 20019AH  22139.86624176  .00000948  00000-0  82489-4 0  9997","ELEMENT_SET_NO":"999","SITE":"AFETR","MEAN_MOTION":"15.06403232","REV_AT_EPOCH":"12025","DECAY_DATE":null,"FILE":"3453812","RCS_SIZE":"LARGE","MEAN_ELEMENT_THEORY":"SGP4","TLE_LINE2":"2 45391  53.0557 265.7835 0000902  57.6475 302.4602 15.06403232120253","ECCENTRICITY":"0.00009020","OBJECT_ID":"2020-019AH","SEMIMAJOR_AXIS":"6925.339","GP_ID":"203985072","EPHEMERIS_TYPE":"0","PERIOD":"95.592","INCLINATION":"53.0557"},{"CLASSIFICATION_TYPE":"U","TLE_LINE1":"1 45392U 20019AJ  22139.84251542  .00040126  00000-0  22525-2 0  9994","SITE":"AFETR","ELEMENT_SET_NO":"999","MEAN_MOTION":"15.12974114","REV_AT_EPOCH":"12033","DECAY_DATE":null,"FILE":"3453812","MEAN_ELEMENT_THEORY":"SGP4","RCS_SIZE":"LARGE","TLE_LINE2":"2 45392  52.9932 256.5952 0000819  17.0149 343.0869 15.12974114120336","ECCENTRICITY":"0.00008190","OBJECT_ID":"2020-019AJ","SEMIMAJOR_AXIS":"6905.273","GP_ID":"203985322","EPHEMERIS_TYPE":"0","PERIOD":"95.177","INCLINATION":"52.9932","TIME_SYSTEM":"UTC","EPOCH":"2022-05-19T20:13:13.332288","BSTAR":"0.00225250000000","OBJECT_NAME":"STARLINK-1290","ARG_OF_PERICENTER":"17.0149","OBJECT_TYPE":"PAYLOAD","CENTER_NAME":"EARTH","COUNTRY_CODE":"US","APOAPSIS":"527.703","MEAN_MOTION_DOT":"0.00040126","NORAD_CAT_ID":"45392","MEAN_MOTION_DDOT":"0.0000000000000","LAUNCH_DATE":"2020-03-18","PERIAPSIS":"526.572","RA_OF_ASC_NODE":"256.5952","MEAN_ANOMALY":"343.0869","REF_FRAME":"TEME"},{"APOAPSIS":"548.367","MEAN_MOTION_DOT":"-0.00000774","LAUNCH_DATE":"2020-03-18","PERIAPSIS":"546.116","NORAD_CAT_ID":"45393","MEAN_MOTION_DDOT":"0.0000000000000","MEAN_ANOMALY":"278.9372","RA_OF_ASC_NODE":"266.2396","REF_FRAME":"TEME","TIME_SYSTEM":"UTC","BSTAR":"-0.00003309200000","ARG_OF_PERICENTER":"81.1801","OBJECT_NAME":"STARLINK-1291","EPOCH":"2022-05-19T18:18:46.728576","OBJECT_TYPE":"PAYLOAD","CENTER_NAME":"EARTH","COUNTRY_CODE":"US","TLE_LINE2":"2 45393  53.0548 266.2396 0001625  81.1801 278.9372 15.06390970120278","OBJECT_ID":"2020-019AK","SEMIMAJOR_AXIS":"6925.376","ECCENTRICITY":"0.00016250","GP_ID":"203985574","EPHEMERIS_TYPE":"0","INCLINATION":"53.0548","PERIOD":"95.593","TLE_LINE1":"1 45393U 20019AK  22139.76304084 -.00000774  00000-0 -33092-4 0  9996","CLASSIFICATION_TYPE":"U","REV_AT_EPOCH":"12027","SITE":"AFETR","ELEMENT_SET_NO":"999","MEAN_MOTION":"15.06390970","MEAN_ELEMENT_THEORY":"SGP4","FILE":"3453812","RCS_SIZE":"LARGE","DECAY_DATE":null},{"DECAY_DATE":null,"MEAN_ELEMENT_THEORY":"SGP4","FILE":"3453812","RCS_SIZE":"LARGE","MEAN_MOTION":"15.06389113","SITE":"AFETR","ELEMENT_SET_NO":"999","REV_AT_EPOCH":"12025","CLASSIFICATION_TYPE":"U","TLE_LINE1":"1 45394U 20019AL  22139.79253000 -.00000772  00000-0 -32926-4 0  9994","INCLINATION":"53.0540","PERIOD":"95.593","GP_ID":"203986324","EPHEMERIS_TYPE":"0","ECCENTRICITY":"0.00014540","OBJECT_ID":"2020-019AL","SEMIMAJOR_AXIS":"6925.382","TLE_LINE2":"2 45394  53.0540 266.1153 0001454  78.8659 281.2494 15.06389113120252","COUNTRY_CODE":"US","OBJECT_TYPE":"PAYLOAD","CENTER_NAME":"EARTH","EPOCH":"2022-05-19T19:01:14.592000","BSTAR":"-0.00003292600000","ARG_OF_PERICENTER":"78.8659","OBJECT_NAME":"STARLINK-1292","TIME_SYSTEM":"UTC","MEAN_ANOMALY":"281.2494","RA_OF_ASC_NODE":"266.1153","REF_FRAME":"TEME","MEAN_MOTION_DDOT":"0.0000000000000","NORAD_CAT_ID":"45394","LAUNCH_DATE":"2020-03-18","PERIAPSIS":"546.240","APOAPSIS":"548.254","MEAN_MOTION_DOT":"-0.00000772"},{"REF_FRAME":"TEME","MEAN_ANOMALY":"276.9656","RA_OF_ASC_NODE":"266.2834","MEAN_MOTION_DOT":"-0.00000777","APOAPSIS":"548.292","NORAD_CAT_ID":"45395","MEAN_MOTION_DDOT":"0.0000000000000","PERIAPSIS":"546.161","LAUNCH_DATE":"2020-03-18","OBJECT_TYPE":"PAYLOAD","CENTER_NAME":"EARTH","COUNTRY_CODE":"US","TIME_SYSTEM":"UTC","EPOCH":"2022-05-19T18:08:09.468960","ARG_OF_PERICENTER":"83.1508","OBJECT_NAME":"STARLINK-1297","BSTAR":"-0.00003325900000","EPHEMERIS_TYPE":"0","GP_ID":"203984573","INCLINATION":"53.0532","PERIOD":"95.592","TLE_LINE2":"2 45395  53.0532 266.2834 0001538  83.1508 276.9656 15.06395769119697","ECCENTRICITY":"0.00015380","SEMIMAJOR_AXIS":"6925.362","OBJECT_ID":"2020-019AM","SITE":"AFETR","ELEMENT_SET_NO":"999","MEAN_MOTION":"15.06395769","REV_AT_EPOCH":"11969","DECAY_DATE":null,"FILE":"3453812","RCS_SIZE":"LARGE","MEAN_ELEMENT_THEORY":"SGP4","CLASSIFICATION_TYPE":"U","TLE_LINE1":"1 45395U 20019AM  22139.75566515 -.00000777  00000-0 -33259-4 0  9994"},{"CLASSIFICATION_TYPE":"U","TLE_LINE1":"1 45396U 20019AN  22139.86992826  .00000467  00000-0  50226-4 0  9992","ELEMENT_SET_NO":"999","SITE":"AFETR","MEAN_MOTION":"15.06400013","REV_AT_EPOCH":"12024","DECAY_DATE":null,"MEAN_ELEMENT_THEORY":"SGP4","FILE":"3453812","RCS_SIZE":"LARGE","TLE_LINE2":"2 45396  53.0548 265.7547 0001495  79.5260 280.5898 15.06400013120247","ECCENTRICITY":"0.00014950","OBJECT_ID":"2020-019AN","SEMIMAJOR_AXIS":"6925.349","EPHEMERIS_TYPE":"0","GP_ID":"203984823","PERIOD":"95.592","INCLINATION":"53.0548","TIME_SYSTEM":"UTC","EPOCH":"2022-05-19T20:52:41.801664","ARG_OF_PERICENTER":"79.5260","OBJECT_NAME":"STARLINK-1303","BSTAR":"0.00005022600000","OBJECT_TYPE":"PAYLOAD","CENTER_NAME":"EARTH","COUNTRY_CODE":"US","MEAN_MOTION_DOT":"0.00000467","APOAPSIS":"548.249","NORAD_CAT_ID":"45396","MEAN_MOTION_DDOT":"0.0000000000000","LAUNCH_DATE":"2020-03-18","PERIAPSIS":"546.178","REF_FRAME":"TEME","RA_OF_ASC_NODE":"265.7547","MEAN_ANOMALY":"280.5898"},{"COUNTRY_CODE":"US","OBJECT_TYPE":"PAYLOAD","CENTER_NAME":"EARTH","OBJECT_NAME":"STARLINK-1307","ARG_OF_PERICENTER":"101.5118","BSTAR":"-0.00004363000000","EPOCH":"2022-05-19T17:57:33.059520","TIME_SYSTEM":"UTC","REF_FRAME":"TEME","RA_OF_ASC_NODE":"266.2964","MEAN_ANOMALY":"258.6080","LAUNCH_DATE":"2020-03-18","PERIAPSIS":"545.948","MEAN_MOTION_DDOT":"0.0000000000000","NORAD_CAT_ID":"45397","MEAN_MOTION_DOT":"-0.00000931","APOAPSIS":"548.526","RCS_SIZE":"LARGE","FILE":"3453812","MEAN_ELEMENT_THEORY":"SGP4","DECAY_DATE":null,"REV_AT_EPOCH":"12033","SITE":"AFETR","ELEMENT_SET_NO":"999","MEAN_MOTION":"15.06392297","TLE_LINE1":"1 45397U 20019AP  22139.74829930 -.00000931  00000-0 -43630-4 0  9994","CLASSIFICATION_TYPE":"U","INCLINATION":"53.0555","PERIOD":"95.593","EPHEMERIS_TYPE":"0","GP_ID":"203986074","SEMIMAJOR_AXIS":"6925.372","OBJECT_ID":"2020-019AP","ECCENTRICITY":"0.00018610","TLE_LINE2":"2 45397  53.0555 266.2964 0001861 101.5118 258.6080 15.06392297120333"},{"COUNTRY_CODE":"US","OBJECT_TYPE":"PAYLOAD","CENTER_NAME":"EARTH","BSTAR":"0.00024244000000","ARG_OF_PERICENTER":"94.2403","OBJECT_NAME":"STARLINK-1312","EPOCH":"2022-05-19T20:57:59.986944","TIME_SYSTEM":"UTC","MEAN_ANOMALY":"265.8746","RA_OF_ASC_NODE":"265.7304","REF_FRAME":"TEME","LAUNCH_DATE":"2020-03-18","PERIAPSIS":"546.230","NORAD_CAT_ID":"45398","MEAN_MOTION_DDOT":"0.0000000000000","APOAPSIS":"548.162","MEAN_MOTION_DOT":"0.00003332","FILE":"3453812","RCS_SIZE":"LARGE","MEAN_ELEMENT_THEORY":"SGP4","DECAY_DATE":null,"REV_AT_EPOCH":"12028","SITE":"AFETR","MEAN_MOTION":"15.06405807","ELEMENT_SET_NO":"999","TLE_LINE1":"1 45398U 20019AQ  22139.87361096  .00003332  00000-0  24244-3 0  9998","CLASSIFICATION_TYPE":"U","PERIOD":"95.592","INCLINATION":"53.0537","GP_ID":"203985825","EPHEMERIS_TYPE":"0","OBJECT_ID":"2020-019AQ","SEMIMAJOR_AXIS":"6925.331","ECCENTRICITY":"0.00013950","TLE_LINE2":"2 45398  53.0537 265.7304 0001395  94.2403 265.8746 15.06405807120288"},{"COUNTRY_CODE":"US","CENTER_NAME":"EARTH","OBJECT_TYPE":"PAYLOAD","EPOCH":"2022-05-19T14:00:01.905696","BSTAR":"-0.00011293000000","OBJECT_NAME":"STARLINK-1255","ARG_OF_PERICENTER":"60.2403","TIME_SYSTEM":"UTC","MEAN_ANOMALY":"299.8772","RA_OF_ASC_NODE":"257.0402","REF_FRAME":"TEME","NORAD_CAT_ID":"45399","MEAN_MOTION_DDOT":"0.0000000000000","PERIAPSIS":"545.959","LAUNCH_DATE":"2020-03-18","APOAPSIS":"548.560","MEAN_MOTION_DOT":"-0.00001963","DECAY_DATE":null,"FILE":"3453581","RCS_SIZE":"LARGE","MEAN_ELEMENT_THEORY":"SGP4","ELEMENT_SET_NO":"999","SITE":"AFETR","MEAN_MOTION":"15.06384933","REV_AT_EPOCH":"12043","CLASSIFICATION_TYPE":"U","TLE_LINE1":"1 45399U 20019AR  22139.58335539 -.00001963  00000-0 -11293-3 0  9990","PERIOD":"95.593","INCLINATION":"53.0572","GP_ID":"203960638","EPHEMERIS_TYPE":"0","ECCENTRICITY":"0.00018780","SEMIMAJOR_AXIS":"6925.395","OBJECT_ID":"2020-019AR","TLE_LINE2":"2 45399  53.0572 257.0402 0001878  60.2403 299.8772 15.06384933120439"},{"MEAN_ANOMALY":"292.8361","RA_OF_ASC_NODE":"256.0858","REF_FRAME":"TEME","APOAPSIS":"548.346","MEAN_MOTION_DOT":"0.00000990","LAUNCH_DATE":"2020-03-18","PERIAPSIS":"546.116","NORAD_CAT_ID":"45400","MEAN_MOTION_DDOT":"0.0000000000000","CENTER_NAME":"EARTH","OBJECT_TYPE":"PAYLOAD","COUNTRY_CODE":"US","TIME_SYSTEM":"UTC","BSTAR":"0.00008538900000","ARG_OF_PERICENTER":"67.2798","OBJECT_NAME":"STARLINK-1213","EPOCH":"2022-05-19T19:07:52.754304","GP_ID":"203985323","EPHEMERIS_TYPE":"0","INCLINATION":"53.0534","PERIOD":"95.592","TLE_LINE2":"2 45400  53.0534 256.0858 0001610  67.2798 292.8361 15.06394464120394","OBJECT_ID":"2020-019AS","SEMIMAJOR_AXIS":"6925.366","ECCENTRICITY":"0.00016100","REV_AT_EPOCH":"12039","SITE":"AFETR","ELEMENT_SET_NO":"999","MEAN_MOTION":"15.06394464","FILE":"3453812","MEAN_ELEMENT_THEORY":"SGP4","RCS_SIZE":"LARGE","DECAY_DATE":null,"TLE_LINE1":"1 45400U 20019AS  22139.79713836  .00000990  00000-0  85389-4 0  9991","CLASSIFICATION_TYPE":"U"}];
